PROBA-1                 
1 26958U 01049B   26178.22581186  .00002663  00000+0  17354-3 0  9990
2 26958  97.9602 187.1082 0056519  89.0260 271.7441 15.07539810345134
CUTE-1 (CO-55)          
1 27844U 03031E   26178.01237788  .00000284  00000+0  14187-3 0  9999
2 27844  98.6736 186.4477 0010136 150.4505 209.7249 14.24341380193077
CUBESAT XI-IV (CO-57)   
1 27848U 03031J   26177.93548419  .00000243  00000+0  12580-3 0  9999
2 27848  98.6768 186.0767 0009653 168.4758 191.6643 14.23625736192766
APRIZESAT 4             
1 35684U 09041D   26178.16946233  .00000645  00000+0  83570-4 0  9999
2 35684  98.1410 253.6888 0041948 289.8347  69.8347 14.83891448912849
APRIZESAT 3             
1 35686U 09041F   26177.99634244  .00000988  00000+0  89999-4 0  9998
2 35686  98.2075 331.6907 0062493  35.7192 324.8184 14.96270364917842
PROBA-2                 
1 36037U 09059B   26178.07537042  .00000198  00000+0  56620-4 0  9994
2 36037  98.2451   1.2911 0012012 248.1591 111.8329 14.54866422882960
APRIZESAT 5             
1 37792U 11044E   26178.07345014  .00001042  00000+0  13880-3 0  9995
2 37792  98.2452 111.3941 0051532 332.3794  27.4681 14.81095821800259
APRIZESAT 6             
1 37793U 11044F   26178.02882318  .00000791  00000+0  11856-3 0  9995
2 37793  98.2359  88.7291 0044280  55.5096 316.0196 14.76930201798609
PROBA-V                 
1 39159U 13021A   26177.88872988  .00000090  00000+0  57685-4 0  9998
2 39159  98.3589 156.0166 0005391 101.2016 258.9770 14.23599181682495
APRIZESAT 7             
1 39416U 13066A   26177.88128964  .00001252  00000+0  12903-3 0  9995
2 39416  97.7711 130.9618 0035843 176.7007 183.4455 14.91582791682672
APRIZESAT 8             
1 39425U 13066K   26178.09607190  .00000844  00000+0  97371-4 0  9991
2 39425  97.8224 125.4260 0044389 252.8212 106.8142 14.87669122681145
BUGSAT-1 (TITA)         
1 40014U 14033E   26178.20339604  .00007519  00000+0  39463-3 0  9990
2 40014  98.0434 271.3379 0028747 144.8353 215.4782 15.15695284657358
SAUDISAT 4              
1 40016U 14033G   26178.19561225  .00000608  00000+0  86718-4 0  9994
2 40016  97.7593 323.9845 0045702  42.2914 318.1808 14.79556668647550
APRIZESAT 9             
1 40018U 14033J   26178.18509687  .00000770  00000+0  12016-3 0  9998
2 40018  97.9071 311.1399 0066479 167.0024 193.2917 14.74228331645032
APRIZESAT 10            
1 40019U 14033K   26178.05864628  .00000505  00000+0  87195-4 0  9991
2 40019  97.9660 304.7985 0077569 241.7696 117.5664 14.70891498643709
TECHDEMOSAT-1 (TDS-1)   
1 40076U 14037H   26177.94416406  .00008509  00000+0  48022-3 0  9999
2 40076  98.3810 171.1246 0005124 222.5193 137.5639 15.13430497649703
TECHNOSAT               
1 42829U 17042E   26178.15590987  .00003075  00000+0  21994-3 0  9999
2 42829  97.4292 335.4354 0019233  63.2311 297.0881 15.05018655488204
FLYING LAPTOP           
1 42831U 17042G   26178.18398056  .00002534  00000+0  20114-3 0  9990
2 42831  97.4727 333.3342 0019974  89.8356 270.5157 15.01206076487954
HAWK-A                  
1 43765U 18099H   26178.12684272  .00006593  00000+0  26498-3 0  9992
2 43765  97.3913 230.2333 0033214 249.0498 110.7184 15.24754379414619
HAWK-B                  
1 43794U 18099AN  26178.09453875  .00006368  00000+0  27107-3 0  9991
2 43794  97.3963 229.5956 0030237 268.1786  91.5987 15.22926951414546
HAWK-C                  
1 43799U 18099AT  26178.14631603  .00008131  00000+0  29172-3 0  9993
2 43799  97.3889 231.2138 0038834 248.9438 110.7647 15.28237287415430
SALSAT                  
1 46495U 20068K   26177.95657953  .00008212  00000+0  28601-3 0  9998
2 46495  97.8848 181.6168 0007823 266.2984  93.7361 15.29932421316852
HAWK-2C                 
1 47502U 21006CT  26178.12803507  .00007028  00000+0  21057-3 0  9991
2 47502  97.2278 222.2397 0007747 153.0932 207.0714 15.34780004301029
HAWK-2A                 
1 47505U 21006CW  26178.13043147  .00006958  00000+0  20843-3 0  9994
2 47505  97.2320 222.9257 0007212 155.8858 204.2725 15.34794338301022
HAWK-2B                 
1 47508U 21006CZ  26178.06016086  .00008040  00000+0  23963-3 0  9991
2 47508  97.2187 221.1725 0007788 154.9386 205.2237 15.34897058301012
HAWK-3B                 
1 48931U 21059BE  26178.07623029  .00046311  00000+0  37934-3 0  9998
2 48931  97.6649  15.7252 0003115 279.0787  81.0122 15.70388207279407
HAWK-3C                 
1 48948U 21059BX  26178.13962447  .00044319  00000+0  36302-3 0  9997
2 48948  97.6770  21.4981 0003374 279.8145  80.2736 15.70396104279414
HAWK-3A                 
1 48957U 21059CG  26178.07576602  .00044996  00000+0  36877-3 0  9992
2 48957  97.6713  18.6249 0003308 282.2811  77.8080 15.70380541279402
HAWK-5C                 
1 52754U 22057Y   26178.16964653  .00020783  00000+0  34996-3 0  9996
2 52754  97.6604 338.4830 0004277  51.0341 309.1291 15.51733502227895
HAWK-5B                 
1 52756U 22057AA  26178.16948155  .00020454  00000+0  34437-3 0  9992
2 52756  97.6612 336.8329 0004917  43.0566 317.1070 15.51737071227891
HAWK-5A                 
1 52757U 22057AB  26178.16928228  .00020988  00000+0  35332-3 0  9999
2 52757  97.6611 337.6641 0004822  45.8178 314.3469 15.51735642227894
